GPS BIIR-2  (PRN 13)    
1 24876U 97035A   20041.80390386  .00000042  00000-0  00000-0 0  9991
2 24876  55.4572 189.1380 0039746  65.0784 295.2892  2.00564663165456
GPS BIIR-3  (PRN 11)    
1 25933U 99055A   20040.13484080 -.00000049  00000-0  00000-0 0  9998
2 25933  52.2520  35.5828 0156135 113.7944  61.0249  2.00657395149048
GPS BIIR-4  (PRN 20)    
1 26360U 00025A   20038.44056104 -.00000012  00000-0  00000+0 0  9994
2 26360  53.4535 114.6288 0049418 150.3603 278.5547  2.00568602144699
GPS BIIR-5  (PRN 28)    
1 26407U 00040A   20038.64557925 -.00000014  00000-0  00000-0 0  9995
2 26407  56.0911 307.3293 0189674 278.6949 263.0863  2.00564453143386
GPS BIIR-6  (PRN 14)    
1 26605U 00071A   20042.00507275  .00000040  00000-0  00000-0 0  9995
2 26605  55.0328 186.4823 0111338 249.8153 111.4578  2.00570285141052
GPS BIIR-8  (PRN 16)    
1 27663U 03005A   20041.45810316 -.00000018  00000-0  00000-0 0  9997
2 27663  56.1462 307.0008 0112690  33.4891 146.0958  2.00559258124809
GPS BIIR-9  (PRN 21)    
1 27704U 03010A   20042.24863566 -.00000033  00000-0  00000-0 0  9999
2 27704  54.5363  58.2024 0250551 281.6759  73.2691  2.00576274123619
GPS BIIR-10 (PRN 22)    
1 28129U 03058A   20041.49987268 -.00000000  00000-0  00000-0 0  9999
2 28129  53.2660 117.2409 0072931 289.1153  70.1545  2.00574397118280
GPS BIIR-11 (PRN 19)    
1 28190U 04009A   20041.50320417 -.00000065  00000-0  00000+0 0  9993
2 28190  56.2835   7.7786 0089430  89.1594 275.5943  2.00564121116471
GPS BIIR-12 (PRN 23)    
1 28361U 04023A   20042.37224906  .00000036  00000-0  00000-0 0  9999
2 28361  54.0582 180.5898 0136350 234.5970 308.1509  2.00563543114553
GPS BIIR-13 (PRN 02)    
1 28474U 04045A   20042.25541197 -.00000032  00000-0  00000-0 0  9996
2 28474  54.8858  58.0403 0199947 264.8027 200.1296  2.00568321111946
GPS BIIRM-1 (PRN 17)    
1 28874U 05038A   20042.12616472 -.00000066  00000-0  00000+0 0  9994
2 28874  56.3931   5.1303 0136408 265.2205 209.9769  2.00566864105335
GPS BIIRM-2 (PRN 31)    
1 29486U 06042A   20040.07054615  .00000075  00000-0  00000+0 0  9996
2 29486  54.9061 243.5540 0096392   5.2438 343.8329  2.00551190 98002
GPS BIIRM-3 (PRN 12)    
1 29601U 06052A   20039.03002751 -.00000010  00000-0  00000-0 0  9995
2 29601  56.1328 306.0149 0077257  62.5474 298.2906  2.00554687 96855
GPS BIIRM-4 (PRN 15)    
1 32260U 07047A   20040.33483417  .00000023  00000-0  00000+0 0  9994
2 32260  53.1815 176.1398 0120006  48.8142 312.1675  2.00567477 90304
GPS BIIRM-5 (PRN 29)    
1 32384U 07062A   20041.40201043 -.00000065  00000-0  00000-0 0  9998
2 32384  56.4850   5.8217 0008631 114.7434  65.0422  2.00569159 89064
GPS BIIRM-6 (PRN 07)    
1 32711U 08012A   20041.74981859  .00000059  00000-0  00000-0 0  9997
2 32711  54.6490 242.6203 0134573 222.2160 136.7692  2.00560585 87270
GPS BIIRM-8 (PRN 05)    
1 35752U 09043A   20039.21008641 -.00000006  00000-0  00000-0 0  9991
2 35752  54.5280 120.3205 0056048  43.9949 312.7538  2.00572397 76807
GPS BIIF-1  (PRN 25)    
1 36585U 10022A   20042.06091141 -.00000016  00000-0  00000+0 0  9999
2 36585  55.4052 302.0228 0088890  50.5115 308.8815  2.00572861 71098
GPS BIIF-2  (PRN 01)    
1 37753U 11036A   20041.44632630 -.00000020  00000-0  00000-0 0  9994
2 37753  56.0863  62.3178 0092062  42.0789 321.4369  2.00568231 62778
GPS BIIF-3  (PRN 24)    
1 38833U 12053A   20041.93212583  .00000057  00000-0  00000-0 0  9998
2 38833  53.6899 238.5822 0093852  36.5428 324.1146  2.00564321 53059
GPS BIIF-4  (PRN 27)    
1 39166U 13023A   20041.28968799 -.00000066  00000-0  00000+0 0  9991
2 39166  56.0625   1.8556 0077295  27.3751 333.0224  2.00565529 49364
GPS BIIF-5  (PRN 30)    
1 39533U 14008A   20041.79246088  .00000056  00000-0  00000+0 0  9997
2 39533  53.8101 244.0100 0042938 194.8223 165.0829  2.00561073 43731
GPS BIIF-6  (PRN 06)    
1 39741U 14026A   20042.06993461 -.00000025  00000-0  00000+0 0  9990
2 39741  56.0629  61.8201 0021019 291.9469  67.8839  2.00555015 42027
GPS BIIF-7  (PRN 09)    
1 40105U 14045A   20041.65469197  .00000034  00000-0  00000+0 0  9994
2 40105  54.5844 181.0530 0015295 103.1343 256.9928  2.00549413 40460
GPS BIIF-8  (PRN 03)    
1 40294U 14068A   20042.03144597  .00000004  00000-0  00000-0 0  9993
2 40294  55.2801 121.9491 0024734  38.1223 322.1060  2.00569998 38719
GPS BIIF-9  (PRN 26)    
1 40534U 15013A   20041.67157063 -.00000012  00000-0  00000+0 0  9991
2 40534  54.3248 300.1294 0045953   8.3182 351.8243  2.00554986 35756
GPS BIIF-10 (PRN 08)    
1 40730U 15033A   20040.82944095 -.00000066  00000-0  00000+0 0  9995
2 40730  55.5819   1.1051 0052035 347.1201  12.7408  2.00569564 33498
GPS BIIF-11 (PRN 10)    
1 41019U 15062A   20041.37889170  .00000005  00000-0  00000+0 0  9993
2 41019  55.2785 121.7976 0054916 208.7644 150.9832  2.00564414 31321
GPS BIIF-12 (PRN 32)    
1 41328U 16007A   20040.97054809  .00000032  00000-0  00000-0 0  9995
2 41328  54.8219 181.5329 0036796 217.9942 141.7015  2.00562498 29379
GPS BIII-1  (PRN 04)    
1 43873U 18109A   20042.57047317  .00000041  00000-0  00000-0 0  9991
2 43873  55.0034 183.7135 0006506 222.7137 105.2548  2.00557632  8624
